{
  "norad_id": 48918,
  "name": "ICEYE-X11",
  "history": [
    {
      "epoch": "2026-03-28T22:09:08.496864Z",
      "apogee_km": 340.4423664545038,
      "perigee_km": 334.5144927148094,
      "latitude_deg": 2.7049770405915394e-05,
      "longitude_deg": 119.19329174764508,
      "height_km": 341.1700892129423,
      "semi_major_axis_km": 6715.615429584656,
      "eccentricity": 0.00044135,
      "inclination_deg": 97.6425,
      "raan_deg": 277.8152,
      "arg_perigee_deg": 259.7871,
      "mean_anomaly_deg": 100.2897,
      "mean_motion_rev_day": 15.77516951
    },
    {
      "epoch": "2026-03-29T04:14:30.450048Z",
      "apogee_km": 340.2683533077625,
      "perigee_km": 334.338619358331,
      "latitude_deg": -3.915143575135177e-05,
      "longitude_deg": 27.881444977615015,
      "height_km": 341.0505495868466,
      "semi_major_axis_km": 6715.4404863330465,
      "eccentricity": 0.0004415,
      "inclination_deg": 97.6424,
      "raan_deg": 278.0949,
      "arg_perigee_deg": 258.7023,
      "mean_anomaly_deg": 101.3746,
      "mean_motion_rev_day": 15.77578595
    },
    {
      "epoch": "2026-03-30T04:35:50.428032Z",
      "apogee_km": 339.6337614526301,
      "perigee_km": 333.64149657369853,
      "latitude_deg": -4.108053134825679e-05,
      "longitude_deg": 22.668957401498506,
      "height_km": 340.5489554174102,
      "semi_major_axis_km": 6714.774629013164,
      "eccentricity": 0.0004462,
      "inclination_deg": 97.6425,
      "raan_deg": 279.2159,
      "arg_perigee_deg": 255.6069,
      "mean_anomaly_deg": 104.4701,
      "mean_motion_rev_day": 15.77813257
    },
    {
      "epoch": "2026-03-30T06:07:09.993792Z",
      "apogee_km": 339.59017772718926,
      "perigee_km": 333.6026499420741,
      "latitude_deg": -4.887735318994849e-05,
      "longitude_deg": -0.15497597629964877,
      "height_km": 340.5224983030871,
      "semi_major_axis_km": 6714.733413834631,
      "eccentricity": 0.00044585,
      "inclination_deg": 97.6426,
      "raan_deg": 279.286,
      "arg_perigee_deg": 255.3037,
      "mean_anomaly_deg": 104.7734,
      "mean_motion_rev_day": 15.77827784
    },
    {
      "epoch": "2026-03-30T13:43:47.011296Z",
      "apogee_km": 339.3692418045448,
      "perigee_km": 333.38553516210413,
      "latitude_deg": -8.069585610533817e-06,
      "longitude_deg": -114.27136385710217,
      "height_km": 340.3719953127801,
      "semi_major_axis_km": 6714.514388483324,
      "eccentricity": 0.00044558,
      "inclination_deg": 97.6426,
      "raan_deg": 279.6364,
      "arg_perigee_deg": 253.9348,
      "mean_anomaly_deg": 106.1427,
      "mean_motion_rev_day": 15.77904987
    },
    {
      "epoch": "2026-03-30T22:51:41.723136Z",
      "apogee_km": 339.1234038171342,
      "perigee_km": 333.116695175514,
      "latitude_deg": 0.00010601162338224621,
      "longitude_deg": 108.79652301622639,
      "height_km": 340.1322530044221,
      "semi_major_axis_km": 6714.257049496324,
      "eccentricity": 0.00044731,
      "inclination_deg": 97.6425,
      "raan_deg": 280.0573,
      "arg_perigee_deg": 253.651,
      "mean_anomaly_deg": 106.4265,
      "mean_motion_rev_day": 15.77995703
    },
    {
      "epoch": "2026-03-31T20:10:02.562816Z",
      "apogee_km": 338.5875920331591,
      "perigee_km": 332.5788124521514,
      "latitude_deg": -2.7027240652885695e-05,
      "longitude_deg": 149.3159123473072,
      "height_km": 339.81256384165704,
      "semi_major_axis_km": 6713.720202242655,
      "eccentricity": 0.0004475,
      "inclination_deg": 97.6419,
      "raan_deg": 281.0385,
      "arg_perigee_deg": 249.2928,
      "mean_anomaly_deg": 110.7858,
      "mean_motion_rev_day": 15.78184978
    },
    {
      "epoch": "2026-04-01T20:30:49.490208Z",
      "apogee_km": 337.9075748929763,
      "perigee_km": 332.02421151737053,
      "latitude_deg": -1.3204424600667591e-05,
      "longitude_deg": 144.24241114647475,
      "height_km": 339.3652542017473,
      "semi_major_axis_km": 6713.102893205173,
      "eccentricity": 0.0004382,
      "inclination_deg": 97.641,
      "raan_deg": 282.1604,
      "arg_perigee_deg": 245.2371,
      "mean_anomaly_deg": 114.8439,
      "mean_motion_rev_day": 15.78402668
    },
    {
      "epoch": "2026-04-02T19:20:06.483840Z",
      "apogee_km": 337.1544809325933,
      "perigee_km": 331.350948785127,
      "latitude_deg": 3.099383563044018e-05,
      "longitude_deg": 162.03555812634903,
      "height_km": 338.81291368428913,
      "semi_major_axis_km": 6712.38971485886,
      "eccentricity": 0.0004323,
      "inclination_deg": 97.641,
      "raan_deg": 283.2116,
      "arg_perigee_deg": 241.3154,
      "mean_anomaly_deg": 118.7678,
      "mean_motion_rev_day": 15.78654228
    },
    {
      "epoch": "2026-04-02T22:22:39.698688Z",
      "apogee_km": 337.03300962604953,
      "perigee_km": 331.2227389055879,
      "latitude_deg": -3.9262852636616826e-05,
      "longitude_deg": 116.41241890120455,
      "height_km": 338.7024215789428,
      "semi_major_axis_km": 6712.264874265818,
      "eccentricity": 0.00043281,
      "inclination_deg": 97.641,
      "raan_deg": 283.3518,
      "arg_perigee_deg": 241.0302,
      "mean_anomaly_deg": 119.053,
      "mean_motion_rev_day": 15.7869827
    },
    {
      "epoch": "2026-04-03T19:40:24.936384Z",
      "apogee_km": 336.3310454723105,
      "perigee_km": 330.5094407196484,
      "latitude_deg": -6.594765123646055e-05,
      "longitude_deg": 157.0806405377233,
      "height_km": 338.1083712898149,
      "semi_major_axis_km": 6711.557243095979,
      "eccentricity": 0.0004337,
      "inclination_deg": 97.6415,
      "raan_deg": 284.3331,
      "arg_perigee_deg": 238.5109,
      "mean_anomaly_deg": 121.5733,
      "mean_motion_rev_day": 15.78947951
    },
    {
      "epoch": "2026-04-04T06:19:12.872352Z",
      "apogee_km": 336.00181807222543,
      "perigee_km": 330.0895345816898,
      "latitude_deg": 6.150876610320691e-05,
      "longitude_deg": -2.5660522632543126,
      "height_km": 337.84281301781397,
      "semi_major_axis_km": 6711.182676326957,
      "eccentricity": 0.00044048,
      "inclination_deg": 97.6418,
      "raan_deg": 284.8234,
      "arg_perigee_deg": 236.5543,
      "mean_anomaly_deg": 123.5303,
      "mean_motion_rev_day": 15.7908014
    },
    {
      "epoch": "2026-04-05T14:15:20.493216Z",
      "apogee_km": 335.1666842621562,
      "perigee_km": 329.1967820979953,
      "latitude_deg": 2.5340999098092342e-05,
      "longitude_deg": -121.43614513953321,
      "height_km": 337.2363171259672,
      "semi_major_axis_km": 6710.3187331800755,
      "eccentricity": 0.00044483,
      "inclination_deg": 97.6415,
      "raan_deg": 286.2966,
      "arg_perigee_deg": 230.8028,
      "mean_anomaly_deg": 129.2844,
      "mean_motion_rev_day": 15.79385106
    }
  ]
}